{
  "type": "FeatureCollection",
  "features": [
    {
      "type": "Feature",
      "properties": {
        "norad_id": 29486,
        "name": "GPS BIIRM-2 (PRN 31)",
        "group": "gps-ops",
        "lat": -5.831398655133592,
        "lon": -17.036137326318716,
        "alt_km": 20384.83010660216,
        "timestamp": "2025-12-10T18:57:00.324113+00:00",
        "meta_object_name": "GPS BIIRM-2 (PRN 31)",
        "meta_object_id": "2006-042A",
        "meta_epoch": "2025-12-09T13:14:35.270304",
        "meta_mean_motion": 2.00554233,
        "meta_eccentricity": 0.0107363,
        "meta_inclination": 54.6937,
        "meta_ra_of_asc_node": 158.8672,
        "meta_arg_of_pericenter": 51.886,
        "meta_mean_anomaly": 320.6455,
        "meta_ephemeris_type": 0,
        "meta_classification_type": "U",
        "meta_norad_cat_id": 29486,
        "meta_element_set_no": 999,
        "meta_rev_at_epoch": 14059,
        "meta_bstar": 0,
        "meta_mean_motion_dot": 6.7e-07,
        "meta_mean_motion_ddot": 0,
        "tle_line1": "1 29486U 06042A   25343.55179711  .00000067  00000+0  00000+0 0  9995",
        "tle_line2": "2 29486  54.6937 158.8672 0107363  51.8860 320.6455  2.00554233140598"
      },
      "geometry": {
        "type": "Point",
        "coordinates": [
          -17.036137326318716,
          -5.831398655133592
        ]
      }
    },
    {
      "type": "Feature",
      "properties": {
        "norad_id": 29601,
        "name": "GPS BIIRM-3 (PRN 12)",
        "group": "gps-ops",
        "lat": -47.45916700317881,
        "lon": 91.28790359134946,
        "alt_km": 20400.36206348137,
        "timestamp": "2025-12-10T18:57:00.324125+00:00",
        "meta_object_name": "GPS BIIRM-3 (PRN 12)",
        "meta_object_id": "2006-052A",
        "meta_epoch": "2025-12-09T22:55:07.366368",
        "meta_mean_motion": 2.00573319,
        "meta_eccentricity": 0.0087752,
        "meta_inclination": 54.9712,
        "meta_ra_of_asc_node": 221.5087,
        "meta_arg_of_pericenter": 87.406,
        "meta_mean_anomaly": 273.6761,
        "meta_ephemeris_type": 0,
        "meta_classification_type": "U",
        "meta_norad_cat_id": 29601,
        "meta_element_set_no": 999,
        "meta_rev_at_epoch": 13961,
        "meta_bstar": 0,
        "meta_mean_motion_dot": 3e-08,
        "meta_mean_motion_ddot": 0,
        "tle_line1": "1 29601U 06052A   25343.95494637  .00000003  00000+0  00000+0 0  9996",
        "tle_line2": "2 29601  54.9712 221.5087 0087752  87.4060 273.6761  2.00573319139619"
      },
      "geometry": {
        "type": "Point",
        "coordinates": [
          91.28790359134946,
          -47.45916700317881
        ]
      }
    },
    {
      "type": "Feature",
      "properties": {
        "norad_id": 32260,
        "name": "GPS BIIRM-4 (PRN 15)",
        "group": "gps-ops",
        "lat": 17.742400105561437,
        "lon": 101.2949952500224,
        "alt_km": 19976.85984595753,
        "timestamp": "2025-12-10T18:57:00.324138+00:00",
        "meta_object_name": "GPS BIIRM-4 (PRN 15)",
        "meta_object_id": "2007-047A",
        "meta_epoch": "2025-12-10T06:15:19.310688",
        "meta_mean_motion": 2.00564571,
        "meta_eccentricity": 0.0164232,
        "meta_inclination": 53.9536,
        "meta_ra_of_asc_node": 87.861,
        "meta_arg_of_pericenter": 85.2178,
        "meta_mean_anomaly": 276.6503,
        "meta_ephemeris_type": 0,
        "meta_classification_type": "U",
        "meta_norad_cat_id": 32260,
        "meta_element_set_no": 999,
        "meta_rev_at_epoch": 13302,
        "meta_bstar": 0,
        "meta_mean_motion_dot": -1.7e-07,
        "meta_mean_motion_ddot": 0,
        "tle_line1": "1 32260U 07047A   25344.26064017 -.00000017  00000+0  00000+0 0  9992",
        "tle_line2": "2 32260  53.9536  87.8610 0164232  85.2178 276.6503  2.00564571133023"
      },
      "geometry": {
        "type": "Point",
        "coordinates": [
          101.2949952500224,
          17.742400105561437
        ]
      }
    },
    {
      "type": "Feature",
      "properties": {
        "norad_id": 32384,
        "name": "GPS BIIRM-5 (PRN 29)",
        "group": "gps-ops",
        "lat": 21.956558388559316,
        "lon": 85.43772931619456,
        "alt_km": 20093.90542280664,
        "timestamp": "2025-12-10T18:57:00.324150+00:00",
        "meta_object_name": "GPS BIIRM-5 (PRN 29)",
        "meta_object_id": "2007-062A",
        "meta_epoch": "2025-12-10T07:23:12.693984",
        "meta_mean_motion": 2.00577118,
        "meta_eccentricity": 0.0032229,
        "meta_inclination": 55.1843,
        "meta_ra_of_asc_node": 281.7435,
        "meta_arg_of_pericenter": 162.5278,
        "meta_mean_anomaly": 2.4985,
        "meta_ephemeris_type": 0,
        "meta_classification_type": "U",
        "meta_norad_cat_id": 32384,
        "meta_element_set_no": 999,
        "meta_rev_at_epoch": 13172,
        "meta_bstar": 0,
        "meta_mean_motion_dot": -6.2e-07,
        "meta_mean_motion_ddot": 0,
        "tle_line1": "1 32384U 07062A   25344.30778581 -.00000062  00000+0  00000+0 0  9999",
        "tle_line2": "2 32384  55.1843 281.7435 0032229 162.5278   2.4985  2.00577118131720"
      },
      "geometry": {
        "type": "Point",
        "coordinates": [
          85.43772931619456,
          21.956558388559316
        ]
      }
    },
    {
      "type": "Feature",
      "properties": {
        "norad_id": 32711,
        "name": "GPS BIIRM-6 (PRN 07)",
        "group": "gps-ops",
        "lat": 52.415750528948,
        "lon": -134.37191034334822,
        "alt_km": 20701.142966215848,
        "timestamp": "2025-12-10T18:57:00.324161+00:00",
        "meta_object_name": "GPS BIIRM-6 (PRN 07)",
        "meta_object_id": "2008-012A",
        "meta_epoch": "2025-12-09T16:22:36.528672",
        "meta_mean_motion": 2.00565456,
        "meta_eccentricity": 0.02023147,
        "meta_inclination": 54.4767,
        "meta_ra_of_asc_node": 157.4949,
        "meta_arg_of_pericenter": 244.9126,
        "meta_mean_anomaly": 112.9814,
        "meta_ephemeris_type": 0,
        "meta_classification_type": "U",
        "meta_norad_cat_id": 32711,
        "meta_element_set_no": 999,
        "meta_rev_at_epoch": 12995,
        "meta_bstar": 0,
        "meta_mean_motion_dot": 6.8e-07,
        "meta_mean_motion_ddot": 0,
        "tle_line1": "1 32711U 08012A   25343.68236723  .00000068  00000+0  00000+0 0  9991",
        "tle_line2": "2 32711  54.4767 157.4949 0202314 244.9126 112.9814  2.00565456129953"
      },
      "geometry": {
        "type": "Point",
        "coordinates": [
          -134.37191034334822,
          52.415750528948
        ]
      }
    },
    {
      "type": "Feature",
      "properties": {
        "norad_id": 35752,
        "name": "GPS BIIRM-8 (PRN 05)",
        "group": "gps-ops",
        "lat": 55.36661774076463,
        "lon": 138.18132772794326,
        "alt_km": 20042.774021203655,
        "timestamp": "2025-12-10T18:57:00.324173+00:00",
        "meta_object_name": "GPS BIIRM-8 (PRN 05)",
        "meta_object_id": "2009-043A",
        "meta_epoch": "2025-12-10T05:14:27.337344",
        "meta_mean_motion": 2.00565787,
        "meta_eccentricity": 0.0051875,
        "meta_inclination": 56.0893,
        "meta_ra_of_asc_node": 34.8825,
        "meta_arg_of_pericenter": 81.9555,
        "meta_mean_anomaly": 322.9738,
        "meta_ephemeris_type": 0,
        "meta_classification_type": "U",
        "meta_norad_cat_id": 35752,
        "meta_element_set_no": 999,
        "meta_rev_at_epoch": 11957,
        "meta_bstar": 0,
        "meta_mean_motion_dot": -9.1e-07,
        "meta_mean_motion_ddot": 0,
        "tle_line1": "1 35752U 09043A   25344.21837196 -.00000091  00000+0  00000+0 0  9992",
        "tle_line2": "2 35752  56.0893  34.8825 0051875  81.9555 322.9738  2.00565787119571"
      },
      "geometry": {
        "type": "Point",
        "coordinates": [
          138.18132772794326,
          55.36661774076463
        ]
      }
    },
    {
      "type": "Feature",
      "properties": {
        "norad_id": 36585,
        "name": "GPS BIIF-1  (PRN 25)",
        "group": "gps-ops",
        "lat": -28.88819198284269,
        "lon": 59.52254092303827,
        "alt_km": 20480.052332553874,
        "timestamp": "2025-12-10T18:57:00.324184+00:00",
        "meta_object_name": "GPS BIIF-1  (PRN 25)",
        "meta_object_id": "2010-022A",
        "meta_epoch": "2025-12-10T05:52:32.460096",
        "meta_mean_motion": 2.00553058,
        "meta_eccentricity": 0.0126007,
        "meta_inclination": 54.3005,
        "meta_ra_of_asc_node": 216.1746,
        "meta_arg_of_pericenter": 65.0446,
        "meta_mean_anomaly": 117.4636,
        "meta_ephemeris_type": 0,
        "meta_classification_type": "U",
        "meta_norad_cat_id": 36585,
        "meta_element_set_no": 999,
        "meta_rev_at_epoch": 11380,
        "meta_bstar": 0,
        "meta_mean_motion_dot": 1e-07,
        "meta_mean_motion_ddot": 0,
        "tle_line1": "1 36585U 10022A   25344.24482014  .00000010  00000+0  00000+0 0  9994",
        "tle_line2": "2 36585  54.3005 216.1746 0126007  65.0446 117.4636  2.00553058113803"
      },
      "geometry": {
        "type": "Point",
        "coordinates": [
          59.52254092303827,
          -28.88819198284269
        ]
      }
    }
  ]
}